LANDSAT 9               
1 49260U 21088A   23275.76783603  .00000802  00000+0  18819-3 0  9998
2 49260  98.2200 344.3230 0001212  82.5932 277.5404 14.57096692107060
